[{"OBJECT_NAME":"KUIPER-00225","OBJECT_ID":"2026-030W","EPOCH":"2026-03-05T17:24:23.971680","MEAN_MOTION":15.35730206,"ECCENTRICITY":0.0004338,"INCLINATION":51.8814,"RA_OF_ASC_NODE":238.2483,"ARG_OF_PERICENTER":27.958,"MEAN_ANOMALY":332.1639,"EPHEMERIS_TYPE":0,"CLASSIFICATION_TYPE":"U","NORAD_CAT_ID":67784,"ELEMENT_SET_NO":999,"REV_AT_EPOCH":448,"BSTAR":0.0010439,"MEAN_MOTION_DOT":0.00036639,"MEAN_MOTION_DDOT":0},{"OBJECT_NAME":"KUIPER-00226","OBJECT_ID":"2026-030X","EPOCH":"2026-03-05T17:01:51.028032","MEAN_MOTION":15.31206757,"ECCENTRICITY":0.0019802,"INCLINATION":51.8805,"RA_OF_ASC_NODE":238.8764,"ARG_OF_PERICENTER":62.1997,"MEAN_ANOMALY":298.0991,"EPHEMERIS_TYPE":0,"CLASSIFICATION_TYPE":"U","NORAD_CAT_ID":67785,"ELEMENT_SET_NO":999,"REV_AT_EPOCH":447,"BSTAR":0.00016953,"MEAN_MOTION_DOT":4.842e-5,"MEAN_MOTION_DDOT":0},{"OBJECT_NAME":"KUIPER-00259","OBJECT_ID":"2026-030Y","EPOCH":"2026-03-05T17:40:28.311456","MEAN_MOTION":15.34904919,"ECCENTRICITY":0.0008398,"INCLINATION":51.8818,"RA_OF_ASC_NODE":238.3194,"ARG_OF_PERICENTER":38.1041,"MEAN_ANOMALY":322.0537,"EPHEMERIS_TYPE":0,"CLASSIFICATION_TYPE":"U","NORAD_CAT_ID":67786,"ELEMENT_SET_NO":999,"REV_AT_EPOCH":448,"BSTAR":0.0010136,"MEAN_MOTION_DOT":0.00034647,"MEAN_MOTION_DDOT":0},{"OBJECT_NAME":"KUIPER-00260","OBJECT_ID":"2026-030Z","EPOCH":"2026-03-05T17:13:11.591328","MEAN_MOTION":15.36286654,"ECCENTRICITY":0.0001079,"INCLINATION":51.8796,"RA_OF_ASC_NODE":238.1961,"ARG_OF_PERICENTER":53.707,"MEAN_ANOMALY":306.4016,"EPHEMERIS_TYPE":0,"CLASSIFICATION_TYPE":"U","NORAD_CAT_ID":67787,"ELEMENT_SET_NO":999,"REV_AT_EPOCH":439,"BSTAR":0.00073391,"MEAN_MOTION_DOT":0.00026069,"MEAN_MOTION_DDOT":0},{"OBJECT_NAME":"KUIPER-00262","OBJECT_ID":"2026-030AA","EPOCH":"2026-03-05T17:08:01.963968","MEAN_MOTION":15.36603235,"ECCENTRICITY":3.28e-5,"INCLINATION":51.8807,"RA_OF_ASC_NODE":238.1759,"ARG_OF_PERICENTER":124.2316,"MEAN_ANOMALY":235.8702,"EPHEMERIS_TYPE":0,"CLASSIFICATION_TYPE":"U","NORAD_CAT_ID":67788,"ELEMENT_SET_NO":999,"REV_AT_EPOCH":448,"BSTAR":0.00076545,"MEAN_MOTION_DOT":0.00027493,"MEAN_MOTION_DDOT":0},{"OBJECT_NAME":"KUIPER-00266","OBJECT_ID":"2026-030AB","EPOCH":"2026-03-05T17:08:32.271360","MEAN_MOTION":15.30933202,"ECCENTRICITY":0.0022553,"INCLINATION":51.8806,"RA_OF_ASC_NODE":238.904,"ARG_OF_PERICENTER":61.7246,"MEAN_ANOMALY":298.601,"EPHEMERIS_TYPE":0,"CLASSIFICATION_TYPE":"U","NORAD_CAT_ID":67789,"ELEMENT_SET_NO":999,"REV_AT_EPOCH":447,"BSTAR":7.4716e-5,"MEAN_MOTION_DOT":1.906e-5,"MEAN_MOTION_DDOT":0},{"OBJECT_NAME":"KUIPER-00268","OBJECT_ID":"2026-030AC","EPOCH":"2026-03-05T15:47:02.510016","MEAN_MOTION":15.35825832,"ECCENTRICITY":0.0002511,"INCLINATION":51.8843,"RA_OF_ASC_NODE":238.5524,"ARG_OF_PERICENTER":36.0636,"MEAN_ANOMALY":324.0519,"EPHEMERIS_TYPE":0,"CLASSIFICATION_TYPE":"U","NORAD_CAT_ID":67790,"ELEMENT_SET_NO":999,"REV_AT_EPOCH":447,"BSTAR":0.00089226,"MEAN_MOTION_DOT":0.0003133,"MEAN_MOTION_DDOT":0},{"OBJECT_NAME":"KUIPER-00270","OBJECT_ID":"2026-030AD","EPOCH":"2026-03-05T17:48:23.346432","MEAN_MOTION":15.34476159,"ECCENTRICITY":0.0010162,"INCLINATION":51.8813,"RA_OF_ASC_NODE":238.3532,"ARG_OF_PERICENTER":45.647,"MEAN_ANOMALY":314.5347,"EPHEMERIS_TYPE":0,"CLASSIFICATION_TYPE":"U","NORAD_CAT_ID":67791,"ELEMENT_SET_NO":999,"REV_AT_EPOCH":448,"BSTAR":0.00072461,"MEAN_MOTION_DOT":0.000243,"MEAN_MOTION_DDOT":0},{"OBJECT_NAME":"KUIPER-00274","OBJECT_ID":"2026-030AE","EPOCH":"2026-03-05T16:53:05.716896","MEAN_MOTION":15.31086175,"ECCENTRICITY":0.0017974,"INCLINATION":51.8815,"RA_OF_ASC_NODE":238.8431,"ARG_OF_PERICENTER":60.7494,"MEAN_ANOMALY":299.5284,"EPHEMERIS_TYPE":0,"CLASSIFICATION_TYPE":"U","NORAD_CAT_ID":67792,"ELEMENT_SET_NO":999,"REV_AT_EPOCH":447,"BSTAR":-0.0016099,"MEAN_MOTION_DOT":-0.00049366,"MEAN_MOTION_DDOT":0},{"OBJECT_NAME":"KUIPER-00275","OBJECT_ID":"2026-030AF","EPOCH":"2026-03-05T17:44:36.023712","MEAN_MOTION":15.34549227,"ECCENTRICITY":0.0008975,"INCLINATION":51.8845,"RA_OF_ASC_NODE":238.3451,"ARG_OF_PERICENTER":42.6068,"MEAN_ANOMALY":317.5612,"EPHEMERIS_TYPE":0,"CLASSIFICATION_TYPE":"U","NORAD_CAT_ID":67793,"ELEMENT_SET_NO":999,"REV_AT_EPOCH":448,"BSTAR":0.00070472,"MEAN_MOTION_DOT":0.00023668,"MEAN_MOTION_DDOT":0},{"OBJECT_NAME":"KUIPER-00276","OBJECT_ID":"2026-030AG","EPOCH":"2026-03-05T16:58:43.578912","MEAN_MOTION":15.31293588,"ECCENTRICITY":0.0019075,"INCLINATION":51.8812,"RA_OF_ASC_NODE":238.8668,"ARG_OF_PERICENTER":54.5943,"MEAN_ANOMALY":305.682,"EPHEMERIS_TYPE":0,"CLASSIFICATION_TYPE":"U","NORAD_CAT_ID":67794,"ELEMENT_SET_NO":999,"REV_AT_EPOCH":447,"BSTAR":-0.001133,"MEAN_MOTION_DOT":-0.00035166,"MEAN_MOTION_DDOT":0},{"OBJECT_NAME":"KUIPER-00279","OBJECT_ID":"2026-030AH","EPOCH":"2026-03-05T17:34:37.911936","MEAN_MOTION":15.35235109,"ECCENTRICITY":0.0006545,"INCLINATION":51.8805,"RA_OF_ASC_NODE":238.2905,"ARG_OF_PERICENTER":36.0821,"MEAN_ANOMALY":324.0606,"EPHEMERIS_TYPE":0,"CLASSIFICATION_TYPE":"U","NORAD_CAT_ID":67795,"ELEMENT_SET_NO":999,"REV_AT_EPOCH":448,"BSTAR":0.00093747,"MEAN_MOTION_DOT":0.00032335,"MEAN_MOTION_DDOT":0},{"OBJECT_NAME":"CREW DRAGON 12","OBJECT_ID":"2026-031A","EPOCH":"2026-03-05T16:56:13.265376","MEAN_MOTION":15.48463204,"ECCENTRICITY":0.0008143,"INCLINATION":51.6315,"RA_OF_ASC_NODE":92.053,"ARG_OF_PERICENTER":160.3826,"MEAN_ANOMALY":199.7477,"EPHEMERIS_TYPE":0,"CLASSIFICATION_TYPE":"U","NORAD_CAT_ID":67796,"ELEMENT_SET_NO":999,"REV_AT_EPOCH":55587,"BSTAR":0.00017141,"MEAN_MOTION_DOT":8.837e-5,"MEAN_MOTION_DDOT":0},{"OBJECT_NAME":"STARLINK-36800","OBJECT_ID":"2026-032A","EPOCH":"2026-03-05T16:35:27.360096","MEAN_MOTION":15.75244948,"ECCENTRICITY":0.0001569,"INCLINATION":97.2846,"RA_OF_ASC_NODE":250.9766,"ARG_OF_PERICENTER":69.275,"MEAN_ANOMALY":290.8684,"EPHEMERIS_TYPE":0,"CLASSIFICATION_TYPE":"U","NORAD_CAT_ID":67797,"ELEMENT_SET_NO":999,"REV_AT_EPOCH":415,"BSTAR":0.00096919,"MEAN_MOTION_DOT":0.00147301,"MEAN_MOTION_DDOT":0},{"OBJECT_NAME":"STARLINK-36798","OBJECT_ID":"2026-032B","EPOCH":"2026-03-05T16:00:00.999936","MEAN_MOTION":15.75195565,"ECCENTRICITY":0.0001719,"INCLINATION":97.2846,"RA_OF_ASC_NODE":250.9899,"ARG_OF_PERICENTER":82.257,"MEAN_ANOMALY":230.3959,"EPHEMERIS_TYPE":0,"CLASSIFICATION_TYPE":"U","NORAD_CAT_ID":67798,"ELEMENT_SET_NO":999,"REV_AT_EPOCH":407,"BSTAR":-0.00015461,"MEAN_MOTION_DOT":-0.00023135,"MEAN_MOTION_DDOT":0},{"OBJECT_NAME":"STARLINK-36804","OBJECT_ID":"2026-032C","EPOCH":"2026-03-05T18:04:23.748960","MEAN_MOTION":15.75218374,"ECCENTRICITY":0.0001203,"INCLINATION":97.2844,"RA_OF_ASC_NODE":251.0458,"ARG_OF_PERICENTER":83.37,"MEAN_ANOMALY":276.7702,"EPHEMERIS_TYPE":0,"CLASSIFICATION_TYPE":"U","NORAD_CAT_ID":67799,"ELEMENT_SET_NO":999,"REV_AT_EPOCH":416,"BSTAR":0.00067916,"MEAN_MOTION_DOT":0.00102521,"MEAN_MOTION_DDOT":0},{"OBJECT_NAME":"STARLINK-36354","OBJECT_ID":"2026-032D","EPOCH":"2026-03-05T16:00:00.999936","MEAN_MOTION":15.75200508,"ECCENTRICITY":0.0001553,"INCLINATION":97.2843,"RA_OF_ASC_NODE":250.9838,"ARG_OF_PERICENTER":91.2442,"MEAN_ANOMALY":201.404,"EPHEMERIS_TYPE":0,"CLASSIFICATION_TYPE":"U","NORAD_CAT_ID":67800,"ELEMENT_SET_NO":999,"REV_AT_EPOCH":413,"BSTAR":-2.3186e-6,"MEAN_MOTION_DOT":-4.76e-6,"MEAN_MOTION_DDOT":0}]
