KUIPER-00225            
1 67784U 26030W   26064.72527745  .00036639  00000+0  10439-2 0  9995
2 67784  51.8814 238.2483 0004338  27.9580 332.1639 15.35730206  4485
KUIPER-00226            
1 67785U 26030X   26064.70961838  .00004842  00000+0  16953-3 0  9998
2 67785  51.8805 238.8764 0019802  62.1997 298.0991 15.31206757  4474
KUIPER-00259            
1 67786U 26030Y   26064.73643879  .00034647  00000+0  10136-2 0  9996
2 67786  51.8818 238.3194 0008398  38.1041 322.0537 15.34904919  4485
KUIPER-00260            
1 67787U 26030Z   26064.71749527  .00026069  00000+0  73391-3 0  9994
2 67787  51.8796 238.1961 0001079  53.7070 306.4016 15.36286654  4394
KUIPER-00262            
1 67788U 26030AA  26064.71391162  .00027493  00000+0  76545-3 0  9999
2 67788  51.8807 238.1759 0000328 124.2316 235.8702 15.36603235  4481
KUIPER-00266            
1 67789U 26030AB  26064.71426240  .00001906  00000+0  74716-4 0  9996
2 67789  51.8806 238.9040 0022553  61.7246 298.6010 15.30933202  4475
KUIPER-00268            
1 67790U 26030AC  26064.65766794  .00031330  00000+0  89226-3 0  9997
2 67790  51.8843 238.5524 0002511  36.0636 324.0519 15.35825832  4473
KUIPER-00270            
1 67791U 26030AD  26064.74193688  .00024300  00000+0  72461-3 0  9996
2 67791  51.8813 238.3532 0010162  45.6470 314.5347 15.34476159  4488
KUIPER-00274            
1 67792U 26030AE  26064.70353839 -.00049366  00000+0 -16099-2 0  9994
2 67792  51.8815 238.8431 0017974  60.7494 299.5284 15.31086175  4479
KUIPER-00275            
1 67793U 26030AF  26064.73930583  .00023668  00000+0  70472-3 0  9996
2 67793  51.8845 238.3451 0008975  42.6068 317.5612 15.34549227  4489
KUIPER-00276            
1 67794U 26030AG  26064.70744883 -.00035166  00000+0 -11330-2 0  9995
2 67794  51.8812 238.8668 0019075  54.5943 305.6820 15.31293588  4477
KUIPER-00279            
1 67795U 26030AH  26064.73238324  .00032335  00000+0  93747-3 0  9993
2 67795  51.8805 238.2905 0006545  36.0821 324.0606 15.35235109  4483
CREW DRAGON 12          
1 67796U 26031A   26064.70570909  .00008837  00000+0  17141-3 0  9994
2 67796  51.6315  92.0530 0008143 160.3826 199.7477 15.48463204555870
STARLINK-36800          
1 67797U 26032A   26064.69128889  .00147301  00000+0  96919-3 0  9990
2 67797  97.2846 250.9766 0001569  69.2750 290.8684 15.75244948  4155
STARLINK-36798          
1 67798U 26032B   26064.66667824 -.00023135  00000+0 -15461-3 0  9998
2 67798  97.2846 250.9899 0001719  82.2570 230.3959 15.75195565  4070
STARLINK-36804          
1 67799U 26032C   26064.75305265  .00102521  00000+0  67916-3 0  9994
2 67799  97.2844 251.0458 0001203  83.3700 276.7702 15.75218374  4161
STARLINK-36354          
1 67800U 26032D   26064.66667824 -.00000476  00000+0 -23186-5 0  9990
2 67800  97.2843 250.9838 0001553  91.2442 201.4040 15.75200508  4139
